[
    {
        "Altitude(m)": 604983.0528634478,
        "Argument of Periapsis(deg)": 0.0,
        "Eccentricity": 0.0,
        "Inclination(deg)": 60.0,
        "Latitude(deg)": -0.09255958285952012,
        "Longitude(deg)": 55.08391649391828,
        "Mean Anomaly(deg)": -180.0,
        "RAAN(deg)": 335.0,
        "Satellite Name": "Test1 1485",
        "Satellite Number": 1485,
        "Semi-Major Axis(m)": 6980739.136638005,
        "Time(s)": 0
    },
    {
        "Altitude(m)": 605055.3317043182,
        "Argument of Periapsis(deg)": 0.00010418945913296404,
        "Eccentricity": 0.0,
        "Inclination(deg)": 60.0,
        "Latitude(deg)": -0.6329691856006937,
        "Longitude(deg)": 55.35204194333205,
        "Mean Anomaly(deg)": -179.37989385453815,
        "RAAN(deg)": 334.99957995086027,
        "Satellite Name": "Test1 1485",
        "Satellite Number": 1485,
        "Semi-Major Axis(m)": 6980739.136638005,
        "Time(s)": 10
    }
]